start=new Date('2023-05-14T00:00:00.000Z').valueOf();
sats=[{"PERIAPSIS":"546.232","EPHEMERIS_TYPE":"0","ARG_OF_PERICENTER":"101.0247","MEAN_ELEMENT_THEORY":"SGP4","INCLINATION":"53.0548","GP_ID":"231775248","APOAPSIS":"548.171","RCS_SIZE":"LARGE","FILE":"3907148","ECCENTRICITY":"0.00014000","PERIOD":"95.592","CENTER_NAME":"EARTH","SITE":"AFETR","RA_OF_ASC_NODE":"134.8486","MEAN_MOTION_DDOT":"0.0000000000000","MEAN_ANOMALY":"259.0899","REF_FRAME":"TEME","TIME_SYSTEM":"UTC","NORAD_CAT_ID":"44724","OBJECT_NAME":"STARLINK-1019","TLE_LINE1":"1 44724U 19074M   23133.71456163 -.00000472  00000-0 -12785-4 0  9999","CLASSIFICATION_TYPE":"U","TLE_LINE2":"2 44724  53.0548 134.8486 0001400 101.0247 259.0899 15.06403799193359","ELEMENT_SET_NO":"999","LAUNCH_DATE":"2019-11-11","REV_AT_EPOCH":"19335","SEMIMAJOR_AXIS":"6925.337","MEAN_MOTION_DOT":"-0.00000472","COUNTRY_CODE":"US","BSTAR":"-0.00001278500000","OBJECT_TYPE":"PAYLOAD","OBJECT_ID":"2019-074M","EPOCH":"2023-05-13T17:08:58.124832","MEAN_MOTION":"15.06403799","DECAY_DATE":null},{"TLE_LINE1":"1 44725U 19074N   23133.78644442  .00005429  00000-0  38310-3 0  9992","OBJECT_NAME":"STARLINK-1020","NORAD_CAT_ID":"44725","TIME_SYSTEM":"UTC","REF_FRAME":"TEME","MEAN_ANOMALY":"278.8618","SITE":"AFETR","RA_OF_ASC_NODE":"154.5192","MEAN_MOTION_DDOT":"0.0000000000000","PERIOD":"95.592","CENTER_NAME":"EARTH","ECCENTRICITY":"0.00013020","FILE":"3907148","RCS_SIZE":"LARGE","APOAPSIS":"548.117","INCLINATION":"53.0520","GP_ID":"231774009","MEAN_ELEMENT_THEORY":"SGP4","ARG_OF_PERICENTER":"81.2519","EPHEMERIS_TYPE":"0","PERIAPSIS":"546.314","DECAY_DATE":null,"MEAN_MOTION":"15.06399273","EPOCH":"2023-05-13T18:52:28.797888","OBJECT_ID":"2019-074N","OBJECT_TYPE":"PAYLOAD","BSTAR":"0.00038310000000","COUNTRY_CODE":"US","MEAN_MOTION_DOT":"0.00005429","SEMIMAJOR_AXIS":"6925.351","REV_AT_EPOCH":"19308","LAUNCH_DATE":"2019-11-11","ELEMENT_SET_NO":"999","TLE_LINE2":"2 44725  53.0520 154.5192 0001302  81.2519 278.8618 15.06399273193084","CLASSIFICATION_TYPE":"U"},{"CLASSIFICATION_TYPE":"U","TLE_LINE2":"2 44726  53.0543 134.8628 0001252  82.9351 277.1780 15.06397499193351","MEAN_MOTION_DOT":"0.00000892","SEMIMAJOR_AXIS":"6925.356","REV_AT_EPOCH":"19335","LAUNCH_DATE":"2019-11-11","ELEMENT_SET_NO":"999","OBJECT_ID":"2019-074P","OBJECT_TYPE":"PAYLOAD","BSTAR":"0.00007874000000","COUNTRY_CODE":"US","DECAY_DATE":null,"MEAN_MOTION":"15.06397499","EPOCH":"2023-05-13T17:03:39.971520","ARG_OF_PERICENTER":"82.9351","PERIAPSIS":"546.354","EPHEMERIS_TYPE":"0","INCLINATION":"53.0543","GP_ID":"231774753","APOAPSIS":"548.088","MEAN_ELEMENT_THEORY":"SGP4","MEAN_ANOMALY":"277.1780","REF_FRAME":"TEME","MEAN_MOTION_DDOT":"0.0000000000000","SITE":"AFETR","RA_OF_ASC_NODE":"134.8628","PERIOD":"95.592","CENTER_NAME":"EARTH","RCS_SIZE":"LARGE","FILE":"3907148","ECCENTRICITY":"0.00012520","TLE_LINE1":"1 44726U 19074P   23133.71087930  .00000892  00000-0  78740-4 0  9990","OBJECT_NAME":"STARLINK-1021","NORAD_CAT_ID":"44726","TIME_SYSTEM":"UTC"},{"OBJECT_TYPE":"PAYLOAD","BSTAR":"0.00002663500000","OBJECT_ID":"2019-074Q","COUNTRY_CODE":"US","DECAY_DATE":null,"EPOCH":"2023-05-13T08:45:13.721760","MEAN_MOTION":"15.76741247","CLASSIFICATION_TYPE":"U","TLE_LINE2":"2 44727  53.0544 161.6344 0001473  85.4908 274.6279 15.76741247192969","SEMIMAJOR_AXIS":"6717.818","MEAN_MOTION_DOT":"0.00003709","ELEMENT_SET_NO":"999","LAUNCH_DATE":"2019-11-11","REV_AT_EPOCH":"19296","MEAN_MOTION_DDOT":"0.0000000000000","SITE":"AFETR","RA_OF_ASC_NODE":"161.6344","REF_FRAME":"TEME","MEAN_ANOMALY":"274.6279","FILE":"3906915","RCS_SIZE":"LARGE","ECCENTRICITY":"0.00014730","PERIOD":"91.328","CENTER_NAME":"EARTH","OBJECT_NAME":"STARLINK-1022","TLE_LINE1":"1 44727U 19074Q   23133.36474215  .00003709  00000-0  26635-4 0  9994","TIME_SYSTEM":"UTC","NORAD_CAT_ID":"44727","ARG_OF_PERICENTER":"85.4908","PERIAPSIS":"338.693","EPHEMERIS_TYPE":"0","INCLINATION":"53.0544","GP_ID":"231741778","APOAPSIS":"340.672","MEAN_ELEMENT_THEORY":"SGP4"},{"EPOCH":"2023-05-13T05:04:52.542336","MEAN_MOTION":"15.44483374","DECAY_DATE":null,"COUNTRY_CODE":"US","OBJECT_TYPE":"PAYLOAD","BSTAR":"0.00061946000000","OBJECT_ID":"2019-074S","REV_AT_EPOCH":"19367","LAUNCH_DATE":"2019-11-11","ELEMENT_SET_NO":"999","SEMIMAJOR_AXIS":"6811.033","MEAN_MOTION_DOT":"0.00028898","TLE_LINE2":"2 44729  53.0201 105.6985 0010917  46.9967 313.1951 15.44483374193674","CLASSIFICATION_TYPE":"U","TIME_SYSTEM":"UTC","NORAD_CAT_ID":"44729","OBJECT_NAME":"STARLINK-1024","TLE_LINE1":"1 44729U 19074S   23133.21171924  .00028898  00000-0  61946-3 0  9990","ECCENTRICITY":"0.00109170","RCS_SIZE":"LARGE","FILE":"3906915","CENTER_NAME":"EARTH","PERIOD":"93.235","SITE":"AFETR","MEAN_MOTION_DDOT":"0.0000000000000","RA_OF_ASC_NODE":"105.6985","REF_FRAME":"TEME","MEAN_ANOMALY":"313.1951","MEAN_ELEMENT_THEORY":"SGP4","APOAPSIS":"440.334","INCLINATION":"53.0201","GP_ID":"231742530","PERIAPSIS":"425.463","EPHEMERIS_TYPE":"0","ARG_OF_PERICENTER":"46.9967"},{"EPOCH":"2023-05-13T17:19:35.892480","MEAN_MOTION":"15.06391938","DECAY_DATE":null,"COUNTRY_CODE":"US","OBJECT_TYPE":"PAYLOAD","BSTAR":"0.00002548900000","OBJECT_ID":"2019-074U","LAUNCH_DATE":"2019-11-11","ELEMENT_SET_NO":"999","REV_AT_EPOCH":"19335","SEMIMAJOR_AXIS":"6925.373","MEAN_MOTION_DOT":"0.00000098","CLASSIFICATION_TYPE":"U","TLE_LINE2":"2 44731  53.0541 134.8077 0001457  91.0853 269.0303 15.06391938193351","TIME_SYSTEM":"UTC","NORAD_CAT_ID":"44731","OBJECT_NAME":"STARLINK-1026","TLE_LINE1":"1 44731U 19074U   23133.72194320  .00000098  00000-0  25489-4 0  9999","FILE":"3907148","RCS_SIZE":"LARGE","ECCENTRICITY":"0.00014570","CENTER_NAME":"EARTH","PERIOD":"95.593","RA_OF_ASC_NODE":"134.8077","SITE":"AFETR","MEAN_MOTION_DDOT":"0.0000000000000","REF_FRAME":"TEME","MEAN_ANOMALY":"269.0303","MEAN_ELEMENT_THEORY":"SGP4","GP_ID":"231773509","INCLINATION":"53.0541","APOAPSIS":"548.247","EPHEMERIS_TYPE":"0","PERIAPSIS":"546.229","ARG_OF_PERICENTER":"91.0853"},{"CLASSIFICATION_TYPE":"U","TLE_LINE2":"2 44732  53.0538 154.5688 0001296  94.9712 265.1425 15.06394367193083","SEMIMAJOR_AXIS":"6925.366","MEAN_MOTION_DOT":"0.00001211","ELEMENT_SET_NO":"999","LAUNCH_DATE":"2019-11-11","REV_AT_EPOCH":"19308","OBJECT_TYPE":"PAYLOAD","BSTAR":"0.00010018000000","OBJECT_ID":"2019-074V","COUNTRY_CODE":"US","DECAY_DATE":null,"EPOCH":"2023-05-13T18:36:33.503328","MEAN_MOTION":"15.06394367","ARG_OF_PERICENTER":"94.9712","PERIAPSIS":"546.333","EPHEMERIS_TYPE":"0","GP_ID":"231774253","INCLINATION":"53.0538","APOAPSIS":"548.128","MEAN_ELEMENT_THEORY":"SGP4","MEAN_MOTION_DDOT":"0.0000000000000","SITE":"AFETR","RA_OF_ASC_NODE":"154.5688","MEAN_ANOMALY":"265.1425","REF_FRAME":"TEME","RCS_SIZE":"LARGE","FILE":"3907148","ECCENTRICITY":"0.00012960","CENTER_NAME":"EARTH","PERIOD":"95.592","OBJECT_NAME":"STARLINK-1027","TLE_LINE1":"1 44732U 19074V   23133.77538777  .00001211  00000-0  10018-3 0  9992","TIME_SYSTEM":"UTC","NORAD_CAT_ID":"44732"},{"ARG_OF_PERICENTER":"90.9755","PERIAPSIS":"546.390","EPHEMERIS_TYPE":"0","INCLINATION":"53.0539","GP_ID":"231774512","APOAPSIS":"548.063","MEAN_ELEMENT_THEORY":"SGP4","SITE":"AFETR","MEAN_MOTION_DDOT":"0.0000000000000","RA_OF_ASC_NODE":"134.5793","MEAN_ANOMALY":"269.1372","REF_FRAME":"TEME","FILE":"3907148","RCS_SIZE":"LARGE","ECCENTRICITY":"0.00012080","CENTER_NAME":"EARTH","PERIOD":"95.592","OBJECT_NAME":"STARLINK-1028","TLE_LINE1":"1 44733U 19074W   23133.77353976  .00000224  00000-0  33919-4 0  9998","TIME_SYSTEM":"UTC","NORAD_CAT_ID":"44733","CLASSIFICATION_TYPE":"U","TLE_LINE2":"2 44733  53.0539 134.5793 0001208  90.9755 269.1372 15.06395647193364","SEMIMAJOR_AXIS":"6925.362","MEAN_MOTION_DOT":"0.00000224","LAUNCH_DATE":"2019-11-11","REV_AT_EPOCH":"19336","ELEMENT_SET_NO":"999","OBJECT_TYPE":"PAYLOAD","BSTAR":"0.00003391900000","OBJECT_ID":"2019-074W","COUNTRY_CODE":"US","DECAY_DATE":null,"EPOCH":"2023-05-13T18:33:53.835264","MEAN_MOTION":"15.06395647"},{"SITE":"AFETR","MEAN_MOTION_DDOT":"0.0000000000000","RA_OF_ASC_NODE":"53.9196","REF_FRAME":"TEME","MEAN_ANOMALY":"299.3034","RCS_SIZE":"LARGE","FILE":"3907148","ECCENTRICITY":"0.00009100","PERIOD":"95.592","CENTER_NAME":"EARTH","OBJECT_NAME":"STARLINK-1029","TLE_LINE1":"1 44734U 19074X   23133.92100440  .00022437  00000-0  15206-2 0  9999","TIME_SYSTEM":"UTC","NORAD_CAT_ID":"44734","ARG_OF_PERICENTER":"60.8046","PERIAPSIS":"546.599","EPHEMERIS_TYPE":"0","INCLINATION":"53.0548","GP_ID":"231775249","APOAPSIS":"547.859","MEAN_ELEMENT_THEORY":"SGP4","BSTAR":"0.00152060000000","OBJECT_TYPE":"PAYLOAD","OBJECT_ID":"2019-074X","COUNTRY_CODE":"US","DECAY_DATE":null,"EPOCH":"2023-05-13T22:06:14.780160","MEAN_MOTION":"15.06394963","CLASSIFICATION_TYPE":"U","TLE_LINE2":"2 44734  53.0548  53.9196 0000910  60.8046 299.3034 15.06394963194488","SEMIMAJOR_AXIS":"6925.364","MEAN_MOTION_DOT":"0.00022437","LAUNCH_DATE":"2019-11-11","REV_AT_EPOCH":"19448","ELEMENT_SET_NO":"999"},{"TIME_SYSTEM":"UTC","NORAD_CAT_ID":"44735","OBJECT_NAME":"STARLINK-1030","TLE_LINE1":"1 44735U 19074Y   23133.78274224 -.00009267  00000-0 -60351-3 0  9996","ECCENTRICITY":"0.00011440","RCS_SIZE":"LARGE","FILE":"3907148","PERIOD":"95.590","CENTER_NAME":"EARTH","SITE":"AFETR","RA_OF_ASC_NODE":"154.5379","MEAN_MOTION_DDOT":"0.0000000000000","MEAN_ANOMALY":"247.3889","REF_FRAME":"TEME","MEAN_ELEMENT_THEORY":"SGP4","APOAPSIS":"547.905","INCLINATION":"53.0534","GP_ID":"231774010","EPHEMERIS_TYPE":"0","PERIAPSIS":"546.320","ARG_OF_PERICENTER":"112.7221","EPOCH":"2023-05-13T18:47:08.929536","MEAN_MOTION":"15.06432948","DECAY_DATE":null,"COUNTRY_CODE":"US","OBJECT_TYPE":"PAYLOAD","BSTAR":"-0.00060351000000","OBJECT_ID":"2019-074Y","LAUNCH_DATE":"2019-11-11","ELEMENT_SET_NO":"999","REV_AT_EPOCH":"19308","SEMIMAJOR_AXIS":"6925.248","MEAN_MOTION_DOT":"-0.00009267","TLE_LINE2":"2 44735  53.0534 154.5379 0001144 112.7221 247.3889 15.06432948193089","CLASSIFICATION_TYPE":"U"}];
